FLOCK 4Q-16             
1 58271U 23174R   26190.18626734  .00014376  00000+0  25612-3 0  9994
2 58271  97.3825 278.8187 0007018  94.1901 266.0153 15.50194371148989
FLOCK 4Q-11             
1 58273U 23174T   26191.19368214  .00020028  00000+0  34950-3 0  9990
2 58273  97.3859 280.4798 0006708  86.5059 273.6960 15.50712242149152
FLOCK 4Q-28             
1 58280U 23174AA  26190.68679776  .00022974  00000+0  32480-3 0  9997
2 58280  97.3880 282.6446 0005325  80.5118 279.6738 15.56530020149249
FLOCK 4Q-27             
1 58282U 23174AC  26190.04646677  .00023535  00000+0  33076-3 0  9999
2 58282  97.3807 281.3932 0004485  86.5235 273.6533 15.56690260149158
FLOCK 4Q-7              
1 58318U 23174BQ  26189.80911120  .00029655  00000+0  41053-3 0  9992
2 58318  97.3904 282.0540 0005166  66.5295 293.6503 15.57050195149113
FLOCK 4Q-2              
1 58320U 23174BS  26191.30745152  .00017998  00000+0  31480-3 0  9993
2 58320  97.3837 280.3117 0005287  66.8105 293.3703 15.50679034149187
FLOCK 4Q-9              
1 58322U 23174BU  26190.48708966  .00022467  00000+0  38601-3 0  9994
2 58322  97.3856 279.5754 0006178  70.1317 290.0600 15.51132843149048
FLOCK 4Q-4              
1 58327U 23174BZ  26191.20621891  .00019055  00000+0  34462-3 0  9991
2 58327  97.3823 279.4426 0006225  89.4278 270.7687 15.49709782149122
FLOCK 4Q-13             
1 58328U 23174CA  26191.20094085  .00018269  00000+0  29706-3 0  9992
2 58328  97.4001 282.7058 0006262  70.5001 289.6928 15.52721790149243
FLOCK 4BE-18            
1 60480U 24149N   26191.17932148  .00010476  00000+0  24256-3 0  9991
2 60480  97.3723 275.1601 0004809 158.3301 201.8151 15.42627981105857
FLOCK 4BE-7             
1 60481U 24149P   26190.49417234  .00018237  00000+0  43952-3 0  9997
2 60481  97.3753 273.7667 0003870 163.9201 196.2170 15.41289725105683
FLOCK 4BE-36            
1 60486U 24149U   26189.77694602  .00012409  00000+0  27967-3 0  9990
2 60486  97.3738 274.4730 0004291 170.3083 189.8249 15.43394438105683
FLOCK 4BE-25            
1 60487U 24149V   26190.19274936  .00010797  00000+0  27774-3 0  9997
2 60487  97.3792 273.5000 0003294 156.2094 203.9304 15.39431125105625
FLOCK 4BE-31            
1 60488U 24149W   26190.04645690  .00015235  00000+0  32503-3 0  9999
2 60488  97.3793 275.6689 0003379 166.3128 193.8213 15.44977948105751
FLOCK 4BE-20            
1 60489U 24149X   26190.16701510  .00011075  00000+0  29164-3 0  9994
2 60489  97.3689 272.2977 0004489 169.4129 190.7212 15.38700104105595
FLOCK 4BE-23            
1 60490U 24149Y   26190.03305605  .00010461  00000+0  27962-3 0  9999
2 60490  97.3776 272.5504 0004084 173.1683 186.9618 15.38255639105552
